*******************************************************************************
Ephemeris / WWW_USER Sat Apr 27 22:00:44 2019 Pasadena, USA      / Horizons    
*******************************************************************************
Target body name: Pluto (999)                     {source: plu055l_merged}
Center body name: Earth (399)                     {source: plu055l_merged}
Center-site name: GEOCENTRIC
*******************************************************************************
Start time      : A.D. 2015-Jan-01 00:00:00.0000 UT      
Stop  time      : A.D. 2025-Jan-01 00:00:00.0000 UT      
Step-size       : 2880 minutes
*******************************************************************************
Target pole/equ : IAU_PLUTO                       {East-longitude positive}
Target radii    : 1195.0 x 1195.0 x 1195.0 km     {Equator, meridian, pole}    
Center geodetic : 0.00000000,0.00000000,0.0000000 {E-lon(deg),Lat(deg),Alt(km)}
Center cylindric: 0.00000000,0.00000000,0.0000000 {E-lon(deg),Dxy(km),Dz(km)}
Center pole/equ : High-precision EOP model        {East-longitude positive}
Center radii    : 6378.1 x 6378.1 x 6356.8 km     {Equator, meridian, pole}    
Target primary  : Sun
Vis. interferer : MOON (R_eq= 1737.400) km        {source: plu055l_merged}
Rel. light bend : Sun, EARTH                      {source: plu055l_merged}
Rel. lght bnd GM: 1.3271E+11, 3.9860E+05 km^3/s^2                              
Atmos refraction: YES (Earth refraction model)
RA format       : DEG
Time format     : CAL 
EOP file        : eop.190426.p190718                                           
EOP coverage    : DATA-BASED 1962-JAN-20 TO 2019-APR-26. PREDICTS-> 2019-JUL-17
Units conversion: 1 au= 149597870.700 km, c= 299792.458 km/s, 1 day= 86400.0 s 
Table cut-offs 1: Elevation (-90.0deg=NO ),Airmass (>38.000=NO), Daylight (NO )
Table cut-offs 2: Solar elongation (  0.0,180.0=NO ),Local Hour Angle( 0.0=NO )
Table cut-offs 3: RA/DEC angular rate (     0.0=NO )                           
*******************************************************************************
 Date__(UT)__HR:MN      APmag  S-brt            delta      deldot    S-T-O
**************************************************************************
$$SOE
 2017-Oct-27 00:00      14.33   9.01 33.7054855931282  29.5181945   1.6323
 2017-Oct-29 00:00      14.33   9.01 33.7394182006401  29.2244609   1.6137
 2017-Oct-31 00:00      14.33   9.01 33.7729691313312  28.8578628   1.5933
 2017-Nov-02 00:00      14.33   9.01 33.8060807056989  28.4770317   1.5711
 2017-Nov-04 00:00      14.33   9.01 33.8387573544592  28.0945742   1.5470
 2017-Nov-06 00:00      14.33   9.01 33.8709564543165  27.6452015   1.5212
 2017-Nov-08 00:00      14.33   9.01 33.9026123596451  27.1681628   1.4936
 2017-Nov-10 00:00      14.33   9.01 33.9337245309793  26.6974977   1.4643
 2017-Nov-12 00:00      14.34   9.01 33.9642631409231  26.1653841   1.4333
 2017-Nov-14 00:00      14.34   9.01 33.9941532412296  25.5880738   1.4006
 2017-Nov-16 00:00      14.34   9.00 34.0233821815640  25.0198740   1.3664
 2017-Nov-18 00:00      14.34   9.00 34.0519341543243  24.4033377   1.3305
 2017-Nov-20 00:00      14.34   9.00 34.0797353511485  23.7308691   1.2932
 2017-Nov-22 00:00      14.34   9.00 34.1067631336212  23.0689158   1.2543
 2017-Nov-24 00:00      14.34   9.00 34.1330173018062  22.3774978   1.2140
 2017-Nov-26 00:00      14.34   9.00 34.1584338801432  21.6254152   1.1723
 2017-Nov-28 00:00      14.34   9.00 34.1829808202786  20.8811529   1.1293
 2017-Nov-30 00:00      14.34   8.99 34.2066702944112  20.1275179   1.0850
 2017-Dec-02 00:00      14.34   8.99 34.2294538294298  19.3141678   1.0395
 2017-Dec-04 00:00      14.34   8.99 34.2512909046449  18.5012810   0.9928
 2017-Dec-06 00:00      14.34   8.99 34.2721991586941  17.6948265   0.9450
 2017-Dec-08 00:00      14.34   8.99 34.2921445697097  16.8300951   0.8961
 2017-Dec-10 00:00      14.33   8.98 34.3110740564886  15.9497782   0.8462
 2017-Dec-12 00:00      14.33   8.98 34.3289992782764  15.0844296   0.7953
 2017-Dec-14 00:00      14.33   8.98 34.3459005947090  14.1685362   0.7436
 2017-Dec-16 00:00      14.33   8.98 34.3617199253567  13.2248524   0.6909
 2017-Dec-18 00:00      14.33   8.98 34.3764638789444  12.3049168   0.6375
 2017-Dec-20 00:00      14.33   8.97 34.3901321529976  11.3506095   0.5834
 2017-Dec-22 00:00      14.33   8.97 34.4026707038467  10.3604199   0.5286
 2017-Dec-24 00:00      14.33   8.97 34.4140798424428   9.3987154   0.4732
 2017-Dec-26 00:00      14.32   8.97 34.4243775284632   8.4225094   0.4173
 2017-Dec-28 00:00      14.32   8.97 34.4335200284156   7.4062378   0.3610
 2017-Dec-30 00:00      14.32   8.96 34.4414998924633   6.4177705   0.3042
 2018-Jan-01 00:00      14.32   8.96 34.4483487527796   5.4344460   0.2472
 2018-Jan-03 00:00      14.32   8.96 34.4540358925543   4.4086770   0.1899
 2018-Jan-05 00:00      14.32   8.96 34.4585415184954   3.4002209   0.1325
 2018-Jan-07 00:00      14.31   8.95 34.4618990490713   2.4093202   0.0753
 2018-Jan-09 00:00      14.31   8.95 34.4640888495205   1.3758081   0.0208
 2018-Jan-11 00:00      14.31   8.95 34.4650799108526   0.3475966   0.0435
 2018-Jan-13 00:00      14.32   8.96 34.4649059429250  -0.6489034   0.1002
 2018-Jan-15 00:00      14.32   8.96 34.4635666088590  -1.6773830   0.1576
 2018-Jan-17 00:00      14.32   8.96 34.4610289409719  -2.7098594   0.2150
 2018-Jan-19 00:00      14.32   8.96 34.4573251534211  -3.6991841   0.2722
 2018-Jan-21 00:00      14.32   8.97 34.4524757332330  -4.7043467   0.3291
 2018-Jan-23 00:00      14.33   8.97 34.4464515511594  -5.7212219   0.3856
 2018-Jan-25 00:00      14.33   8.97 34.4392798550433  -6.6888341   0.4418
 2018-Jan-27 00:00      14.33   8.97 34.4309996255753  -7.6537147   0.4974
 2018-Jan-29 00:00      14.33   8.97 34.4215895183924  -8.6369218   0.5524
 2018-Jan-31 00:00      14.33   8.98 34.4110665382546  -9.5737779   0.6068
 2018-Feb-02 00:00      14.34   8.98 34.3994792364166 -10.4934347   0.6605
 2018-Feb-04 00:00      14.34   8.98 34.3868126346223 -11.4389594   0.7135
 2018-Feb-06 00:00      14.34   8.98 34.3730684201616 -12.3483322   0.7657
 2018-Feb-08 00:00      14.34   8.99 34.3582993681869 -13.2250511   0.8171
 2018-Feb-10 00:00      14.34   8.99 34.3425050206170 -14.1248332   0.8675
 2018-Feb-12 00:00      14.34   8.99 34.3256798121749 -14.9966151   0.9169
 2018-Feb-14 00:00      14.34   8.99 34.3078805844402 -15.8196107   0.9653
 2018-Feb-16 00:00      14.34   8.99 34.2891264559902 -16.6560615   1.0126
 2018-Feb-18 00:00      14.34   9.00 34.2694090810786 -17.4736399   1.0588
 2018-Feb-20 00:00      14.34   9.00 34.2487846657243 -18.2304061   1.1037
 2018-Feb-22 00:00      14.34   9.00 34.2272922727045 -18.9866162   1.1474
 2018-Feb-24 00:00      14.35   9.00 34.2049245512564 -19.7338544   1.1898
 2018-Feb-26 00:00      14.35   9.00 34.1817306222948 -20.4162561   1.2308
 2018-Feb-28 00:00      14.35   9.01 34.1577637886192 -21.0850185   1.2704
 2018-Mar-02 00:00      14.35   9.01 34.1330172826615 -21.7574441   1.3085
 2018-Mar-04 00:00      14.35   9.01 34.1075247953612 -22.3708493   1.3452
 2018-Mar-06 00:00      14.35   9.01 34.0813469242720 -22.9574503   1.3804
 2018-Mar-08 00:00      14.35   9.01 34.0544829716891 -23.5539747   1.4140
 2018-Mar-10 00:00      14.35   9.01 34.0269549400910 -24.0971768   1.4460
 2018-Mar-12 00:00      14.34   9.01 33.9988321466033 -24.5957748   1.4763
 2018-Mar-14 00:00      14.34   9.02 33.9701288934458 -25.1024053   1.5049
 2018-Mar-16 00:00      14.34   9.02 33.9408591438702 -25.5639050   1.5319
 2018-Mar-18 00:00      14.34   9.02 33.9110963709731 -25.9651134   1.5570
 2018-Mar-20 00:00      14.34   9.02 33.8808726184920 -26.3672039   1.5804
 2018-Mar-22 00:00      14.34   9.02 33.8501965234299 -26.7348774   1.6020
 2018-Mar-24 00:00      14.34   9.02 33.8191391754178 -27.0324324   1.6216
 2018-Mar-26 00:00      14.34   9.02 33.7877479620201 -27.3225597   1.6395
 2018-Mar-28 00:00      14.34   9.02 33.7560254165747 -27.5939819   1.6554
 2018-Mar-30 00:00      14.34   9.02 33.7240298822456 -27.7955271   1.6694
 2018-Apr-01 00:00      14.33   9.02 33.6918180073848 -27.9808751   1.6815
 2018-Apr-03 00:00      14.33   9.02 33.6593892684927 -28.1613610   1.6917
 2018-Apr-05 00:00      14.33   9.02 33.6267880175110 -28.2746050   1.7000
 2018-Apr-07 00:00      14.33   9.02 33.5940819226635 -28.3560508   1.7062
 2018-Apr-09 00:00      14.33   9.02 33.5612780220708 -28.4383413   1.7105
 2018-Apr-11 00:00      14.33   9.03 33.5284096925256 -28.4583981   1.7129
 2018-Apr-13 00:00      14.32   9.03 33.4955532842657 -28.4300489   1.7132
 2018-Apr-15 00:00      14.32   9.03 33.4627282513657 -28.4033499   1.7115
 2018-Apr-17 00:00      14.32   9.03 33.4299576863211 -28.3236245   1.7078
 2018-Apr-19 00:00      14.32   9.02 33.3973209243713 -28.1816202   1.7021
 2018-Apr-21 00:00      14.31   9.02 33.3648511011825 -28.0391611   1.6944
 2018-Apr-23 00:00      14.31   9.02 33.3325596846203 -27.8597281   1.6847
 2018-Apr-25 00:00      14.31   9.02 33.3005177012032 -27.6134477   1.6731
 2018-Apr-27 00:00      14.31   9.02 33.2687669994825 -27.3643163   1.6595
 2018-Apr-29 00:00      14.30   9.02 33.2373075689480 -27.0965934   1.6439
 2018-May-01 00:00      14.30   9.02 33.2061972184892 -26.7609295   1.6264
 2018-May-03 00:00      14.30   9.02 33.1754889573974 -26.4121586   1.6071
 2018-May-05 00:00      14.30   9.02 33.1451813387138 -26.0569913   1.5858
 2018-May-07 00:00      14.29   9.02 33.1153205284128 -25.6344941   1.5627
 2018-May-09 00:00      14.29   9.02 33.0859715044598 -25.1840519   1.5377
 2018-May-11 00:00      14.29   9.02 33.0571381655567 -24.7353022   1.5109
 2018-May-13 00:00      14.28   9.02 33.0288537500140 -24.2251395   1.4823
 2018-May-15 00:00      14.28   9.02 33.0011907964943 -23.6720498   1.4519
 2018-May-17 00:00      14.28   9.01 32.9741624655811 -23.1250544   1.4198
 2018-May-19 00:00      14.28   9.01 32.9477873680117 -22.5296679   1.3859
